{"type": "FeatureCollection", "features": [ {"type": "Feature", "properties": {"norad_id": 30891, "name": "FENGYUN 1C DEB", "group": "fengyun-1c-debris", "lat": -33.586232705201105, "lon": -151.85482794043045, "alt_km": 843.363636295705, "timestamp": "2025-12-12T09:49:09.010990+00:00", "meta": {"OBJECT_NAME": "FENGYUN 1C DEB", "OBJECT_ID": "1999-025AYD", "EPOCH": "2025-12-12T02:06:56.363040", "MEAN_MOTION": 14.05863076, "ECCENTRICITY": 0.0055312, "INCLINATION": 98.7849, "RA_OF_ASC_NODE": 33.7278, "ARG_OF_PERICENTER": 189.5027, "MEAN_ANOMALY": 200.552, "EPHEMERIS_TYPE": 0, "CLASSIFICATION_TYPE": "U", "NORAD_CAT_ID": 30891, "ELEMENT_SET_NO": 999, "REV_AT_EPOCH": 95973, "BSTAR": 0.0010918, "MEAN_MOTION_DOT": 1.768e-05, "MEAN_MOTION_DDOT": 0}, "tle": {"line1": "1 30891U 99025AYD 25346.08815235  .00001768  00000+0  10918-2 0  9990", "line2": "2 30891  98.7849  33.7278 0055312 189.5027 200.5520 14.05863076959733"}}, "geometry": {"type": "Point", "coordinates": [-151.85482794043045, -33.586232705201105]}}, {"type": "Feature", "properties": {"norad_id": 30892, "name": "FENGYUN 1C DEB", "group": "fengyun-1c-debris", "lat": 69.10450205233623, "lon": 136.057873321044, "alt_km": 818.3637558115088, "timestamp": "2025-12-12T09:49:09.011001+00:00", "meta": {"OBJECT_NAME": "FENGYUN 1C DEB", "OBJECT_ID": "1999-025AYE", "EPOCH": "2025-12-02T15:45:32.268672", "MEAN_MOTION": 14.18893658, "ECCENTRICITY": 0.00376287, "INCLINATION": 99.6617, "RA_OF_ASC_NODE": 278.9389, "ARG_OF_PERICENTER": 217.7485, "MEAN_ANOMALY": 142.1047, "EPHEMERIS_TYPE": 0, "CLASSIFICATION_TYPE": "U", "NORAD_CAT_ID": 30892, "ELEMENT_SET_NO": 999, "REV_AT_EPOCH": 64160, "BSTAR": 0.00053864396, "MEAN_MOTION_DOT": 1.078e-05, "MEAN_MOTION_DDOT": 0}, "tle": {"line1": "1 30892U 99025AYE 25336.65662348  .00001078  00000+0  53864-3 0  9990", "line2": "2 30892  99.6617 278.9389 0037628 217.7485 142.1047 14.18893658641607"}}, "geometry": {"type": "Point", "coordinates": [136.057873321044, 69.10450205233623]}}, {"type": "Feature", "properties": {"norad_id": 30893, "name": "FENGYUN 1C DEB", "group": "fengyun-1c-debris", "lat": -40.78650328750521, "lon": -173.58304213199082, "alt_km": 1053.6295329991035, "timestamp": "2025-12-12T09:49:09.011012+00:00", "meta": {"OBJECT_NAME": "FENGYUN 1C DEB", "OBJECT_ID": "1999-025AYF", "EPOCH": "2025-12-06T08:24:45.258048", "MEAN_MOTION": 13.94039277, "ECCENTRICITY": 0.03095885, "INCLINATION": 98.258, "RA_OF_ASC_NODE": 8.1876, "ARG_OF_PERICENTER": 110.75, "MEAN_ANOMALY": 318.9405, "EPHEMERIS_TYPE": 0, "CLASSIFICATION_TYPE": "U", "NORAD_CAT_ID": 30893, "ELEMENT_SET_NO": 999, "REV_AT_EPOCH": 94796, "BSTAR": 0.00098360292, "MEAN_MOTION_DOT": 1.902e-05, "MEAN_MOTION_DDOT": 0}, "tle": {"line1": "1 30893U 99025AYF 25340.35052382  .00001902  00000+0  98360-3 0  9990", "line2": "2 30893  98.2580   8.1876 0309588 110.7500 318.9405 13.94039277947964"}}, "geometry": {"type": "Point", "coordinates": [-173.58304213199082, -40.78650328750521]}}, {"type": "Feature", "properties": {"norad_id": 30895, "name": "FENGYUN 1C DEB", "group": "fengyun-1c-debris", "lat": 63.441868279164616, "lon": 37.01688220078738, "alt_km": 700.1353177019446, "timestamp": "2025-12-12T09:49:09.011022+00:00", "meta": {"OBJECT_NAME": "FENGYUN 1C DEB", "OBJECT_ID": "1999-025AYH", "EPOCH": "2025-12-12T00:01:19.076736", "MEAN_MOTION": 14.31545085, "ECCENTRICITY": 0.021806, "INCLINATION": 98.7193, "RA_OF_ASC_NODE": 54.4866, "ARG_OF_PERICENTER": 126.2548, "MEAN_ANOMALY": 358.1855, "EPHEMERIS_TYPE": 0, "CLASSIFICATION_TYPE": "U", "NORAD_CAT_ID": 30895, "ELEMENT_SET_NO": 999, "REV_AT_EPOCH": 97782, "BSTAR": 0.00062349, "MEAN_MOTION_DOT": 2.105e-05, "MEAN_MOTION_DDOT": 0}, "tle": {"line1": "1 30895U 99025AYH 25346.00091524  .00002105  00000+0  62349-3 0  9995", "line2": "2 30895  98.7193  54.4866 0218060 126.2548 358.1855 14.31545085977826"}}, "geometry": {"type": "Point", "coordinates": [37.01688220078738, 63.441868279164616]}}, {"type": "Feature", "properties": {"norad_id": 30898, "name": "FENGYUN 1C DEB", "group": "fengyun-1c-debris", "lat": 65.41640910217495, "lon": 98.12617584988159, "alt_km": 465.24785054504264, "timestamp": "2025-12-12T09:49:09.011032+00:00", "meta": {"OBJECT_NAME": "FENGYUN 1C DEB", "OBJECT_ID": "1999-025AYL", "EPOCH": "2025-12-10T13:08:28.745088", "MEAN_MOTION": 15.21617992, "ECCENTRICITY": 0.0041169, "INCLINATION": 99.0241, "RA_OF_ASC_NODE": 255.5686, "ARG_OF_PERICENTER": 118.4482, "MEAN_ANOMALY": 242.0906, "EPHEMERIS_TYPE": 0, "CLASSIFICATION_TYPE": "U", "NORAD_CAT_ID": 30898, "ELEMENT_SET_NO": 999, "REV_AT_EPOCH": 66338, "BSTAR": 0.004226, "MEAN_MOTION_DOT": 0.00098758, "MEAN_MOTION_DDOT": 0}, "tle": {"line1": "1 30898U 99025AYL 25344.54755492  .00098758  00000+0  42260-2 0  9994", "line2": "2 30898  99.0241 255.5686 0041169 118.4482 242.0906 15.21617992663383"}}, "geometry": {"type": "Point", "coordinates": [98.12617584988159, 65.41640910217495]}}, {"type": "Feature", "properties": {"norad_id": 30903, "name": "FENGYUN 1C DEB", "group": "fengyun-1c-debris", "lat": -57.194872510445535, "lon": -113.1438144538532, "alt_km": 971.3973193973598, "timestamp": "2025-12-12T09:49:09.011042+00:00", "meta": {"OBJECT_NAME": "FENGYUN 1C DEB", "OBJECT_ID": "1999-025AYR", "EPOCH": "2025-12-07T09:49:46.651872", "MEAN_MOTION": 13.9759553, "ECCENTRICITY": 0.00968558, "INCLINATION": 99.3712, "RA_OF_ASC_NODE": 226.9134, "ARG_OF_PERICENTER": 107.4967, "MEAN_ANOMALY": 253.6808, "EPHEMERIS_TYPE": 0, "CLASSIFICATION_TYPE": "U", "NORAD_CAT_ID": 30903, "ELEMENT_SET_NO": 999, "REV_AT_EPOCH": 68630, "BSTAR": 0.0004593066, "MEAN_MOTION_DOT": 6.28e-06, "MEAN_MOTION_DDOT": 0}, "tle": {"line1": "1 30903U 99025AYR 25341.40956773  .00000628  00000+0  45931-3 0  9996", "line2": "2 30903  99.3712 226.9134 0096855 107.4967 253.6808 13.97595530686304"}}, "geometry": {"type": "Point", "coordinates": [-113.1438144538532, -57.194872510445535]}}, {"type": "Feature", "properties": {"norad_id": 30905, "name": "FENGYUN 1C DEB", "group": "fengyun-1c-debris", "lat": -81.07798475397293, "lon": 147.29022534379246, "alt_km": 880.4470741781051, "timestamp": "2025-12-12T09:49:09.011053+00:00", "meta": {"OBJECT_NAME": "FENGYUN 1C DEB", "OBJECT_ID": "1999-025AYT", "EPOCH": "2025-12-12T01:46:26.683680", "MEAN_MOTION": 14.17838619, "ECCENTRICITY": 0.0056807, "INCLINATION": 98.8892, "RA_OF_ASC_NODE": 61.4706, "ARG_OF_PERICENTER": 82.6706, "MEAN_ANOMALY": 278.092, "EPHEMERIS_TYPE": 0, "CLASSIFICATION_TYPE": "U", "NORAD_CAT_ID": 30905, "ELEMENT_SET_NO": 999, "REV_AT_EPOCH": 96113, "BSTAR": 0.0020594, "MEAN_MOTION_DOT": 4.229e-05, "MEAN_MOTION_DDOT": 0}, "tle": {"line1": "1 30905U 99025AYT 25346.07391995  .00004229  00000+0  20594-2 0  9993", "line2": "2 30905  98.8892  61.4706 0056807  82.6706 278.0920 14.17838619961138"}}, "geometry": {"type": "Point", "coordinates": [147.29022534379246, -81.07798475397293]}}, {"type": "Feature", "properties": {"norad_id": 30907, "name": "FENGYUN 1C DEB", "group": "fengyun-1c-debris", "lat": -48.402439934070365, "lon": 175.0248296855132, "alt_km": 848.6435274547857, "timestamp": "2025-12-12T09:49:09.011063+00:00", "meta": {"OBJECT_NAME": "FENGYUN 1C DEB", "OBJECT_ID": "1999-025AYV", "EPOCH": "2025-12-09T21:21:03.076416", "MEAN_MOTION": 14.15071853, "ECCENTRICITY": 0.0056417, "INCLINATION": 99.9526, "RA_OF_ASC_NODE": 3.625, "ARG_OF_PERICENTER": 146.1044, "MEAN_ANOMALY": 214.3752, "EPHEMERIS_TYPE": 0, "CLASSIFICATION_TYPE": "U", "NORAD_CAT_ID": 30907, "ELEMENT_SET_NO": 999, "REV_AT_EPOCH": 1509, "BSTAR": 0.0012837834, "MEAN_MOTION_DOT": 2.474e-05, "MEAN_MOTION_DDOT": 0}, "tle": {"line1": "1 30907U 99025AYV 25343.88961894  .00002474  00000+0  12838-2 0  9994", "line2": "2 30907  99.9526   3.6250 0056417 146.1044 214.3752 14.15071853 15094"}}, "geometry": {"type": "Point", "coordinates": [175.0248296855132, -48.402439934070365]}}, {"type": "Feature", "properties": {"norad_id": 30912, "name": "FENGYUN 1C DEB", "group": "fengyun-1c-debris", "lat": 74.94929184340921, "lon": 43.750576254242944, "alt_km": 551.3906265566693, "timestamp": "2025-12-12T09:49:09.011073+00:00", "meta": {"OBJECT_NAME": "FENGYUN 1C DEB", "OBJECT_ID": "1999-025AZA", "EPOCH": "2025-12-11T12:24:16.080192", "MEAN_MOTION": 14.89329789, "ECCENTRICITY": 0.00593343, "INCLINATION": 98.9981, "RA_OF_ASC_NODE": 186.6306, "ARG_OF_PERICENTER": 101.6956, "MEAN_ANOMALY": 259.0924, "EPHEMERIS_TYPE": 0, "CLASSIFICATION_TYPE": "U", "NORAD_CAT_ID": 30912, "ELEMENT_SET_NO": 999, "REV_AT_EPOCH": 99386, "BSTAR": 0.0027059394, "MEAN_MOTION_DOT": 0.00026543, "MEAN_MOTION_DDOT": 0}, "tle": {"line1": "1 30912U 99025AZA 25345.51685278  .00026543  00000+0  27059-2 0  9995", "line2": "2 30912  98.9981 186.6306 0059334 101.6956 259.0924 14.89329789993869"}}, "geometry": {"type": "Point", "coordinates": [43.750576254242944, 74.94929184340921]}}, {"type": "Feature", "properties": {"norad_id": 30913, "name": "FENGYUN 1C DEB", "group": "fengyun-1c-debris", "lat": 9.242857673249919, "lon": 11.931413545440014, "alt_km": 913.2155033626768, "timestamp": "2025-12-12T09:49:09.011083+00:00", "meta": {"OBJECT_NAME": "FENGYUN 1C DEB", "OBJECT_ID": "1999-025AZB", "EPOCH": "2025-12-12T01:13:41.977056", "MEAN_MOTION": 14.04948678, "ECCENTRICITY": 0.0048492, "INCLINATION": 98.7464, "RA_OF_ASC_NODE": 13.0219, "ARG_OF_PERICENTER": 183.1376, "MEAN_ANOMALY": 176.9495, "EPHEMERIS_TYPE": 0, "CLASSIFICATION_TYPE": "U", "NORAD_CAT_ID": 30913, "ELEMENT_SET_NO": 999, "REV_AT_EPOCH": 95908, "BSTAR": 0.00071353, "MEAN_MOTION_DOT": 1.118e-05, "MEAN_MOTION_DDOT": 0}, "tle": {"line1": "1 30913U 99025AZB 25346.05118029  .00001118  00000+0  71353-3 0  9999", "line2": "2 30913  98.7464  13.0219 0048492 183.1376 176.9495 14.04948678959081"}}, "geometry": {"type": "Point", "coordinates": [11.931413545440014, 9.242857673249919]}}]}